SHIYAN-24C 01           
1 58650U 23206A   26068.89348774  .00002076  00000+0  18089-3 0  9992
2 58650  97.3976  41.7846 0003675 132.3262 227.8273 14.97903598120444
STARLINK-34476          
1 64364U 25126W   26068.29369186  .00006374  00000+0  54139-3 0  9999
2 64364  70.0025  35.4114 0002951 270.6697  89.4123 14.98335488 40623
